COSMOS 1408 DEB         
1 49527U 82092Q   25068.52976325  .00180279  00000+0  54544-2 0  9998
2 49527  82.3515 117.9256 0152909 279.4637  78.9343 15.22826277174455
COSMOS 1408 DEB         
1 49537U 82092AA  25068.94365724  .00050098  00000+0  11053-2 0  9993
2 49537  82.5438  27.4879 0076238 198.6101 161.2356 15.40573044182478
COSMOS 1408 DEB         
1 50032U 82092RU  25068.81905052  .00008061  00000+0  18499-3 0  9990
2 50032  82.5680 342.6027 0018152 135.4967 224.7742 15.42348175183153
COSMOS 1408 DEB         
1 50058U 82092SW  25068.88369239  .00028849  00000+0  51497-3 0  9997
2 50058  82.6172 356.7114 0024764  48.7900 311.5480 15.49549253184837
COSMOS 1408 DEB         
1 50404U 82092ADS 25068.61252075  .00067005  00000+0  46889-2 0  9997
2 50404  82.2270 129.7667 0301233  42.7164 319.7036 14.74984439170482
COSMOS 1408 DEB         
1 50621U 82092ALR 25068.84087093  .00026959  00000+0  57533-3 0  9991
2 50621  82.5781   0.4042 0040680  87.9398 272.6507 15.43816605179464
COSMOS 1408 DEB         
1 51184U 82092AZJ 25068.69674258  .00141580  00000+0  70054-3 0  9995
2 51184  82.4816 319.2431 0007429 349.1673  10.9434 15.81601405177948
COSMOS 1408 DEB         
1 52066U 82092BUU 25066.65552381  .00185727  00000+0  16342-2 0  9991
2 52066  82.4939  36.3159 0047105 252.6281 106.9825 15.66732786166764
